NORAD_CAT_ID,OBJECT_NAME,OBJECT_TYPE,EPOCH,MEAN_MOTION,ECCENTRICITY,INCLINATION,RA_OF_ASC_NODE,ARG_OF_PERICENTER,MEAN_ANOMALY,BSTAR,MEAN_MOTION_DOT,MEAN_MOTION_DDOT,TLE_LINE0,TLE_LINE1,TLE_LINE2,SEMIMAJOR_AXIS,PERIOD,APOGEE,PERIGEE,DECAYED
55644.0,STARLINK-5502,PAYLOAD,2023-03-04 14:00:01,15.73395236,0.0003302,69.995,108.3047,277.5818,136.0949,-0.0071095,-0.0089137,0.0,0 STARLINK-5502,1 55644U 23021S   23063.58334491 -.00891370  00000-0 -71095-2 0  9997,2 55644  69.9950 108.3047 0003302 277.5818 136.0949 15.73395236  1303,6727.339,91.522,351.425,346.982,0.0
55644.0,STARLINK-5502,PAYLOAD,2023-03-04 22:00:00,15.72655724,0.000283,69.9949,107.3632,268.5796,232.2696,-0.0057626,-0.00714714,0.0,0 STARLINK-5502,1 55644U 23021S   23063.91667824 -.00714714  00000-0 -57626-2 0  9993,2 55644  69.9949 107.3632 0002830 268.5796 232.2696 15.72655724  1308,6729.447,91.565,353.217,349.408,0.0
55644.0,STARLINK-5502,PAYLOAD,2023-03-05 08:00:01,15.71973431,0.0003596,69.9946,106.1874,270.383,68.3196,-0.0085096,-0.01008252,0.0,0 STARLINK-5502,1 55644U 23021S   23064.33335648 -.01008252  00000-0 -85096-2 0  9992,2 55644  69.9946 106.1874 0003596 270.3830  68.3196 15.71973431  2985,6731.394,91.605,355.68,350.839,0.0
55644.0,STARLINK-5502,PAYLOAD,2023-03-05 14:00:01,15.71437117,0.00037,69.9942,105.4825,272.5064,40.2225,-0.0084837,-0.00984981,0.0,0 STARLINK-5502,1 55644U 23021S   23064.58334491 -.00984981  00000-0 -84837-2 0  9997,2 55644  69.9942 105.4825 0003700 272.5064  40.2225 15.71437117  1302,6732.926,91.636,357.282,352.3,0.0
55644.0,STARLINK-5502,PAYLOAD,2023-03-05 22:00:00,15.70641488,0.0003668,69.9944,104.5434,265.585,131.8851,-0.0070343,-0.0079389,0.0,0 STARLINK-5502,1 55644U 23021S   23064.91667824 -.00793890  00000-0 -70343-2 0  9997,2 55644  69.9944 104.5434 0003668 265.5850 131.8851 15.70641488  1307,6735.2,91.682,359.535,354.594,0.0
55644.0,STARLINK-5502,PAYLOAD,2023-03-06 08:00:01,15.69910245,0.0003496,69.9953,103.3711,272.5014,319.6748,-1.0832e-05,-1.514e-05,0.0,0 STARLINK-5502,1 55644U 23021S   23065.33334491 -.00001514  00000-0 -10832-4 0  9999,2 55644  69.9953 103.3711 0003496 272.5014 319.6748 15.69910245  3144,6737.291,91.725,361.511,356.8,0.0
55644.0,STARLINK-5502,PAYLOAD,2023-03-06 22:00:00,15.69876011,0.000336,69.9966,101.7307,269.2232,18.8001,0.0011295,0.00137575,0.0,0 STARLINK-5502,1 55644U 23021S   23065.91667824  .00137575  00000-0  11295-2 0  9999,2 55644  69.9966 101.7307 0003360 269.2232  18.8001 15.69876011  3238,6737.389,91.727,361.517,356.99,0.0
55644.0,STARLINK-5502,PAYLOAD,2023-03-07 08:00:01,15.69908216,0.0003516,69.998,100.5591,275.056,207.1388,-0.00021053,-0.00025435,0.0,0 STARLINK-5502,1 55644U 23021S   23066.33334491 -.00025435  00000-0 -21053-3 0  9994,2 55644  69.9980 100.5591 0003516 275.0560 207.1388 15.69908216  3300,6737.297,91.725,361.53,356.793,0.0
55644.0,STARLINK-5502,PAYLOAD,2023-03-07 14:00:01,15.69986285,0.0003352,69.9987,99.8558,276.9993,177.6959,-0.00082966,-0.0009906,0.0,0 STARLINK-5502,1 55644U 23021S   23066.58334491 -.00099060  00000-0 -82966-3 0  9996,2 55644  69.9987  99.8558 0003352 276.9993 177.6959 15.69986285  3349,6737.073,91.721,361.197,356.68,0.0
55644.0,STARLINK-5502,PAYLOAD,2023-03-07 22:00:00,15.69808536,0.000347,70.0,98.9182,263.4899,274.5943,0.0011402,0.00138511,0.0,0 STARLINK-5502,1 55644U 23021S   23066.91667824  .00138511  00000-0  11402-2 0  9991,2 55644  70.0000  98.9182 0003470 263.4899 274.5943 15.69808536  1304,6737.582,91.731,361.785,357.109,0.0
55644.0,STARLINK-5502,PAYLOAD,2023-03-08 06:00:00,15.69908112,0.0003444,70.0006,97.9811,264.284,357.0423,0.00018501,0.00022077,0.0,0 STARLINK-5502,1 55644U 23021S   23067.25001157  .00022077  00000-0  18501-3 0  9997,2 55644  70.0006  97.9811 0003444 264.2840 357.0423 15.69908112  3442,6737.297,91.725,361.482,356.842,0.0
55644.0,STARLINK-5502,PAYLOAD,2023-03-08 22:00:00,15.69842635,0.00034,70.0006,96.1068,255.6778,172.3648,0.0012009,0.00146235,0.0,0 STARLINK-5502,1 55644U 23021S   23067.91667824  .00146235  00000-0  12009-2 0  9998,2 55644  70.0006  96.1068 0003400 255.6778 172.3648 15.69842635  1300,6737.484,91.729,361.64,357.058,0.0
55644.0,STARLINK-5502,PAYLOAD,2023-03-09 02:17:57,15.69948118,0.0003574,69.9964,95.6026,221.5551,138.5373,0.00019369,0.00023165,0.0,0 STARLINK-5502,1 55644U 23021S   23068.09580262  .00023165  00000-0  19369-3 0  9991,2 55644  69.9964  95.6026 0003574 221.5551 138.5373 15.69948118  3574,6737.182,91.723,361.455,356.64,0.0
55644.0,STARLINK-5502,PAYLOAD,2023-03-09 22:00:00,15.69873306,0.0003393,70.0005,93.295,259.2518,58.7879,0.00070642,0.00085418,0.0,0 STARLINK-5502,1 55644U 23021S   23068.91667824  .00085418  00000-0  70642-3 0  9992,2 55644  70.0005  93.2950 0003393 259.2518  58.7879 15.69873306  3708,6737.396,91.727,361.547,356.975,0.0
55644.0,STARLINK-5502,PAYLOAD,2023-03-10 10:24:45,15.69923229,0.0003313,70.0005,91.841,261.6022,98.4798,1.3578e-05,1.42e-05,0.0,0 STARLINK-5502,1 55644U 23021S   23069.43385752  .00001420  00000-0  13578-4 0  9994,2 55644  70.0005  91.8410 0003313 261.6022  98.4798 15.69923229  3781,6737.254,91.724,361.351,356.887,0.0
55644.0,STARLINK-5502,PAYLOAD,2023-03-10 18:03:31,15.69921076,0.0003346,70.0004,90.9453,262.3735,97.708,2.2741e-06,6.1e-07,0.0,0 STARLINK-5502,1 55644U 23021S   23069.75244217  .00000061  00000-0  22741-5 0  9992,2 55644  70.0004  90.9453 0003346 262.3735  97.7080 15.69921076  4147,6737.26,91.724,361.379,356.871,0.0
55644.0,STARLINK-5502,PAYLOAD,2023-03-11 12:24:32,15.69931468,0.0003421,70.0001,88.7957,268.5164,91.564,3.4033e-05,3.883e-05,0.0,0 STARLINK-5502,1 55644U 23021S   23070.51703950  .00003883  00000-0  34033-4 0  9993,2 55644  70.0001  88.7957 0003421 268.5164  91.5640 15.69931468  4269,6737.23,91.724,361.4,356.79,0.0
55644.0,STARLINK-5502,PAYLOAD,2023-03-12 03:42:04,15.69917307,0.0003467,70.0004,87.0042,266.3185,93.7614,-2.3621e-06,-4.97e-06,0.0,0 STARLINK-5502,1 55644U 23021S   23071.15421491 -.00000497  00000-0 -23621-5 0  9993,2 55644  70.0004  87.0042 0003467 266.3185  93.7614 15.69917307  4056,6737.271,91.725,361.471,356.8,0.0
55644.0,STARLINK-5502,PAYLOAD,2023-03-12 12:52:33,15.69940656,0.0003401,70.0009,85.9301,265.6114,94.4693,3.7383e-05,4.288e-05,0.0,0 STARLINK-5502,1 55644U 23021S   23071.53650392  .00004288  00000-0  37383-4 0  9998,2 55644  70.0009  85.9301 0003401 265.6114  94.4693 15.69940656  4113,6737.204,91.723,361.36,356.777,0.0
55644.0,STARLINK-5502,PAYLOAD,2023-03-13 04:10:06,15.69918259,0.0003511,70.0007,84.1391,266.1312,93.9482,-1.4315e-06,-3.85e-06,0.0,0 STARLINK-5502,1 55644U 23021S   23072.17368243 -.00000385  00000-0 -14315-5 0  9997,2 55644  70.0007  84.1391 0003511 266.1312  93.9482 15.69918259  4214,6737.268,91.725,361.498,356.767,0.0
55644.0,STARLINK-5502,PAYLOAD,2023-03-13 13:20:36,15.69927774,0.000324,70.0007,83.0637,261.1088,98.9741,1.4511e-05,1.533e-05,0.0,0 STARLINK-5502,1 55644U 23021S   23072.55597914  .00001533  00000-0  14511-4 0  9999,2 55644  70.0007  83.0637 0003240 261.1088  98.9741 15.69927774  4584,6737.241,91.724,361.289,356.923,0.0
55644.0,STARLINK-5502,PAYLOAD,2023-03-14 10:45:08,15.69934908,0.0003379,70.0021,80.5545,261.8425,98.2387,4.0821e-05,4.701e-05,0.0,0 STARLINK-5502,1 55644U 23021S   23073.44800982  .00004701  00000-0  40821-4 0  9993,2 55644  70.0021  80.5545 0003379 261.8425  98.2387 15.69934908  4727,6737.22,91.724,361.362,356.809,0.0
55644.0,STARLINK-5502,PAYLOAD,2023-03-15 03:34:24,15.69913561,0.0003277,70.0011,78.5858,267.7648,92.3172,-2.3251e-05,-3.006e-05,0.0,0 STARLINK-5502,1 55644U 23021S   23074.14889946 -.00003006  00000-0 -23251-4 0  9995,2 55644  70.0011  78.5858 0003277 267.7648  92.3172 15.69913561  4526,6737.281,91.725,361.354,356.938,0.0
55644.0,STARLINK-5502,PAYLOAD,2023-03-15 09:41:25,15.6992174,0.0003303,70.0008,77.8694,271.9556,88.1262,-2.9864e-07,-2.49e-06,0.0,0 STARLINK-5502,1 55644U 23021S   23074.40376426 -.00000249  00000-0 -29864-6 0  9992,2 55644  70.0008  77.8694 0003303 271.9556  88.1262 15.69921740  4562,6737.258,91.724,361.348,356.898,0.0
55644.0,STARLINK-5502,PAYLOAD,2023-03-15 12:44:55,15.69928863,0.0003319,70.0012,77.5111,273.6044,86.4772,1.6595e-05,1.784e-05,0.0,0 STARLINK-5502,1 55644U 23021S   23074.53119474  .00001784  00000-0  16595-4 0  9992,2 55644  70.0012  77.5111 0003319 273.6044  86.4772 15.69928863  4892,6737.238,91.724,361.339,356.866,0.0
55644.0,STARLINK-5502,PAYLOAD,2023-03-16 11:41:11,15.69939898,0.0003726,70.0022,74.8223,264.282,95.7951,5.101e-05,5.929e-05,0.0,0 STARLINK-5502,1 55644U 23021S   23075.48694104  .00005929  00000-0  51010-4 0  9991,2 55644  70.0022  74.8223 0003726 264.2820  95.7951 15.69939898  4732,6737.206,91.723,361.581,356.561,0.0
55644.0,STARLINK-5502,PAYLOAD,2023-03-16 22:23:28,15.69914158,0.0003498,70.0016,73.57,263.7633,96.3164,-9.3002e-06,-1.33e-05,0.0,0 STARLINK-5502,1 55644U 23021S   23075.93297028 -.00001330  00000-0 -93002-5 0  9997,2 55644  70.0016  73.5700 0003498 263.7633  96.3164 15.69914158  4806,6737.28,91.725,361.501,356.788,0.0
55644.0,STARLINK-5502,PAYLOAD,2023-03-17 12:09:14,15.6993995,0.0003958,70.0013,71.9583,264.9965,95.0779,0.0001045,0.0001238,0.0,0 STARLINK-5502,1 55644U 23021S   23076.50641378  .00012380  00000-0  10450-3 0  9991,2 55644  70.0013  71.9583 0003958 264.9965  95.0779 15.69939950  4890,6737.206,91.723,361.737,356.404,0.0
55644.0,STARLINK-5502,PAYLOAD,2023-03-17 16:44:29,15.69924173,0.0003209,70.0017,71.4203,263.7184,96.3646,1.3314e-05,1.389e-05,0.0,0 STARLINK-5502,1 55644U 23021S   23076.69756807  .00001389  00000-0  13314-4 0  9995,2 55644  70.0017  71.4203 0003209 263.7184  96.3646 15.69924173  4929,6737.251,91.724,361.278,356.954,0.0
55644.0,STARLINK-5502,PAYLOAD,2023-03-18 01:55:00,15.69937195,0.0003637,70.0011,70.3463,261.6211,98.4572,5.6645e-05,6.608e-05,0.0,0 STARLINK-5502,1 55644U 23021S   23077.07986393  .00006608  00000-0  56645-4 0  9996,2 55644  70.0011  70.3463 0003637 261.6211  98.4572 15.69937195  4987,6737.214,91.723,361.529,356.628,0.0
